GPS BIIA-23 (PRN 18)    
1 22877U 93068A   18146.54186979 -.00000065  00000-0  00000+0 0  9992
2 22877  54.4126  84.3926 0143459  74.6335 175.1135  2.00565613180118
GPS BIIR-2  (PRN 13)    
1 24876U 97035A   18146.08958554  .00000018  00000-0  00000+0 0  9993
2 24876  55.4897 213.6346 0031475  90.4053 270.0250  2.00565099152700
GPS BIIR-3  (PRN 11)    
1 25933U 99055A   18146.48914556 -.00000097  00000-0  00000+0 0  9998
2 25933  51.8736  62.6358 0166401 101.1515 112.8407  2.00567644136531
GPS BIIR-4  (PRN 20)    
1 26360U 00025A   18146.35363574  .00000056  00000-0  00000+0 0  9990
2 26360  53.1959 140.5756 0040480 113.0227  64.2402  2.00426524132213
GPS BIIR-5  (PRN 28)    
1 26407U 00040A   18146.44198941 -.00000072  00000-0  00000+0 0  9992
2 26407  56.4921 331.7438 0196807 272.8924 294.0145  2.00563312130890
GPS BIIR-6  (PRN 14)    
1 26605U 00071A   18146.31573470  .00000025  00000-0  00000+0 0  9993
2 26605  55.0628 211.2259 0100974 248.6510 130.4566  2.00573438128497
GPS BIIR-8  (PRN 16)    
1 27663U 03005A   18146.48308028 -.00000072  00000-0  00000+0 0  9994
2 27663  56.5568 331.4989 0099239  28.3407 327.5810  2.00568341112261
GPS BIIR-9  (PRN 21)    
1 27704U 03010A   18146.30112400 -.00000064  00000-0  00000+0 0  9995
2 27704  54.0827  83.9958 0246580 270.8244 273.4248  2.00560078111069
GPS BIIR-10 (PRN 22)    
1 28129U 03058A   18146.27969960  .00000061  00000-0  00000+0 0  9992
2 28129  53.0089 143.4388 0076042 271.8373  87.3050  2.00547668105759
GPS BIIR-11 (PRN 19)    
1 28190U 04009A   18146.20471899 -.00000100  00000-0  00000+0 0  9994
2 28190  56.1634  32.3687 0096642  67.5645 235.6053  2.00559231103933
GPS BIIR-12 (PRN 23)    
1 28361U 04023A   18146.50052100  .00000036  00000-0  00000+0 0  9990
2 28361  54.0622 205.9806 0126751 225.4059 209.1320  2.00549261102021
GPS BIIR-13 (PRN 02)    
1 28474U 04045A   18146.26905630 -.00000064  00000-0  00000+0 0  9999
2 28474  54.4519  83.6021 0181276 253.8918  12.5852  2.00555340 99382
GPS BIIRM-1 (PRN 17)    
1 28874U 05038A   18146.20272378 -.00000099  00000-0  00000+0 0  9994
2 28874  56.3056  29.6762 0125748 258.4611  63.6533  2.00576974 92784
GPS BIIRM-2 (PRN 31)    
1 29486U 06042A   18146.43174380 -.00000070  00000-0  00000+0 0  9998
2 29486  55.1919 268.5401 0087791 351.1773  62.5565  2.00564619 85506
GPS BIIRM-3 (PRN 12)    
1 29601U 06052A   18145.80381187 -.00000068  00000-0  00000-0 0  9991
2 29601  56.5326 330.4425 0070049  55.2392 305.4302  2.00574130 84353
GPS BIIRM-4 (PRN 15)    
1 32260U 07047A   18146.12168202  .00000038  00000-0  00000+0 0  9993
2 32260  53.1867 202.0376 0101058  37.7882 322.9967  2.00554780 77794
GPS BIIRM-5 (PRN 29)    
1 32384U 07062A   18146.34072125 -.00000099  00000-0  00000+0 0  9997
2 32384  56.3790  30.2781 0005717  56.0650 236.6021  2.00562116 76528
GPS BIIRM-6 (PRN 07)    
1 32711U 08012A   18146.53192638 -.00000069  00000-0  00000+0 0  9997
2 32711  54.9253 267.8202 0117724 215.9610 143.2283  2.00564675 74714
GPS BIIRM-8 (PRN 05)    
1 35752U 09043A   18146.33842959  .00000066  00000-0  00000+0 0  9992
2 35752  54.3158 145.5971 0052404  32.9062 217.8027  2.00559155 64299
GPS BIIF-1  (PRN 25)    
1 36585U 10022A   18146.34287191 -.00000073  00000-0  00000+0 0  9997
2 36585  55.8243 326.9986 0073178  48.0960 307.9676  2.00567545 58546
GPS BIIF-2  (PRN 01)    
1 37753U 11036A   18146.47801965 -.00000058  00000-0  00000+0 0  9999
2 37753  55.6520  87.0943 0076658  34.7311 145.8288  2.00564176 50228
GPS BIIF-3  (PRN 24)    
1 38833U 12053A   18146.21436335 -.00000069  00000-0  00000+0 0  9998
2 38833  53.9551 264.4119 0068233  29.5759 330.7960  2.00566443 41295
GPS BIIF-4  (PRN 27)    
1 39166U 13023A   18146.07146709 -.00000098  00000-0  00000+0 0  9995
2 39166  56.0034  26.5846 0058579  22.0765 338.2164  2.00562838 36822
GPS BIIF-5  (PRN 30)    
1 39533U 14008A   18146.07056910 -.00000073  00000-0  00000+0 0  9994
2 39533  54.1007 269.7643 0034398 187.2389 172.6948  2.00556107 31180
GPS BIIF-6  (PRN 06)    
1 39741U 14026A   18145.85182534 -.00000054  00000-0  00000-0 0  9992
2 39741  55.6353  86.6419 0013803 293.8961  65.9259  2.00568696 29481
GPS BIIF-7  (PRN 09)    
1 40105U 14045A   18146.44303281  .00000036  00000-0  00000+0 0  9997
2 40105  54.5879 206.0759 0007209 111.8043 248.3507  2.00569842 27920
GPS BIIF-8  (PRN 03)    
1 40294U 14068A   18146.31305409  .00000070  00000-0  00000+0 0  9999
2 40294  55.0666 146.8477 0013110  15.2282 344.8315  2.00554207 26148
GPS BIIF-9  (PRN 26)    
1 40534U 15013A   18145.95064856 -.00000074  00000-0  00000+0 0  9999
2 40534  54.7668 325.7582 0027772   2.5359 357.4812  2.00565042 23206
GPS BIIF-10  (PRN 08)   
1 40730U 15033A   18146.11588324 -.00000099  00000-0  00000+0 0  9996
2 40730  55.5340  26.0990 0035847 331.7903  28.0574  2.00575959 20962
GPS BIIF-11  (PRN 10)   
1 41019U 15062A   18146.16413616  .00000071  00000-0  00000+0 0  9994
2 41019  55.0720 146.6556 0036336 206.1666 153.6698  2.00564344 18787
GPS BIIF-12  (PRN 32)   
1 41328U 16007A   18146.25165843  .00000034  00000-0  00000+0 0  9992
2 41328  54.8389 206.3676 0022684 218.1460 141.7703  2.00564048 16842
